{
  "type": "FeatureCollection",
  "generator": "overpass-ide",
  "copyright": "The data included in this document is from www.openstreetmap.org. The data is made available under ODbL.",
  "timestamp": "2019-05-11T05:45:02Z",
  "features": [
    {
      "type": "Feature",
      "properties": {
        "@id": "way/52135837",
        "addr:city": "Melbourne",
        "addr:country": "AU",
        "addr:housenumber": "601",
        "addr:postcode": "3000",
        "addr:state": "VIC",
        "addr:street": "Lonsdale Street",
        "addr:suburb": "Melbourne",
        "amenity": "stripclub",
        "building": "yes",
        "name": "The Men's Gallery"
      },
      "geometry": {
        "type": "Polygon",
        "coordinates": [
          [
            [
              144.9547916,
              -37.8147429
            ],
            [
              144.9547286,
              -37.8146041
            ],
            [
              144.9543088,
              -37.8147281
            ],
            [
              144.9544979,
              -37.8151201
            ],
            [
              144.9546561,
              -37.8150756
            ],
            [
              144.9545408,
              -37.8148149
            ],
            [
              144.9547916,
              -37.8147429
            ]
          ]
        ]
      },
      "id": "way/52135837"
    },
    {
      "type": "Feature",
      "properties": {
        "@id": "node/591382455",
        "amenity": "stripclub",
        "name": "Crazy Horse Club X",
        "wheelchair": "no"
      },
      "geometry": {
        "type": "Point",
        "coordinates": [
          144.964766,
          -37.8172518
        ]
      },
      "id": "node/591382455"
    },
    {
      "type": "Feature",
      "properties": {
        "@id": "node/624940923",
        "amenity": "stripclub",
        "name": "Spearmint Rhino Gentlemen's Club",
        "phone": "0396292300"
      },
      "geometry": {
        "type": "Point",
        "coordinates": [
          144.9575822,
          -37.8198665
        ]
      },
      "id": "node/624940923"
    },
    {
      "type": "Feature",
      "properties": {
        "@id": "node/624940927",
        "amenity": "stripclub",
        "name": "Centrefold Lounge",
        "phone": "0396265677"
      },
      "geometry": {
        "type": "Point",
        "coordinates": [
          144.9575165,
          -37.8197616
        ]
      },
      "id": "node/624940927"
    },
    {
      "type": "Feature",
      "properties": {
        "@id": "node/626250405",
        "addr:city": "Melbourne",
        "addr:housenumber": "46",
        "addr:postcode": "3000",
        "addr:street": "King Street",
        "amenity": "stripclub",
        "name": "Showgirls Bar 20",
        "phone": "0396294684",
        "website": "http://www.bar20.com.au"
      },
      "geometry": {
        "type": "Point",
        "coordinates": [
          144.9572773,
          -37.819047
        ]
      },
      "id": "node/626250405"
    },
    {
      "type": "Feature",
      "properties": {
        "@id": "node/660027387",
        "addr:city": "Melbourne",
        "addr:housenumber": "195",
        "addr:postcode": "3000",
        "addr:street": "King Street",
        "amenity": "stripclub",
        "name": "Teezz Lounge"
      },
      "geometry": {
        "type": "Point",
        "coordinates": [
          144.9551639,
          -37.8156461
        ]
      },
      "id": "node/660027387"
    },
    {
      "type": "Feature",
      "properties": {
        "@id": "node/660027388",
        "amenity": "stripclub",
        "name": "Dallas Showgirls Gentleman's Club",
        "phone": "0396424666"
      },
      "geometry": {
        "type": "Point",
        "coordinates": [
          144.9551867,
          -37.815698
        ]
      },
      "id": "node/660027388"
    }
  ]
}